CCSDS_OMM_VERS = 2.0
CREATION_DATE  = 
ORIGINATOR     = 

OBJECT_NAME    = ISS (ZARYA)
OBJECT_ID      = 1998-067A
CENTER_NAME    = EARTH
REF_FRAME      = TEME
TIME_SYSTEM    = UTC
MEAN_ELEMENT_THEORY = SGP/SGP4

EPOCH          = 2026-01-26T04:12:04.882464
MEAN_MOTION    = 15.48192939
ECCENTRICITY   = .001106
INCLINATION    = 51.6321
RA_OF_ASC_NODE = 282.5143
ARG_OF_PERICENTER = 31.3623
MEAN_ANOMALY   = 328.8022

EPHEMERIS_TYPE = 0
CLASSIFICATION_TYPE = U
NORAD_CAT_ID   = 25544
ELEMENT_SET_NO = 999
REV_AT_EPOCH   = 54974
BSTAR          = .24608E-3
MEAN_MOTION_DOT = .12778E-3
MEAN_MOTION_DDOT = 0

CCSDS_OMM_VERS = 2.0
CREATION_DATE  = 
ORIGINATOR     = 

OBJECT_NAME    = CSS (TIANHE)
OBJECT_ID      = 2021-035A
CENTER_NAME    = EARTH
REF_FRAME      = TEME
TIME_SYSTEM    = UTC
MEAN_ELEMENT_THEORY = SGP/SGP4

EPOCH          = 2026-01-26T11:03:46.572480
MEAN_MOTION    = 15.61119658
ECCENTRICITY   = .0009754
INCLINATION    = 41.4668
RA_OF_ASC_NODE = 104.8235
ARG_OF_PERICENTER = 6.6602
MEAN_ANOMALY   = 353.4365

EPHEMERIS_TYPE = 0
CLASSIFICATION_TYPE = U
NORAD_CAT_ID   = 48274
ELEMENT_SET_NO = 999
REV_AT_EPOCH   = 27101
BSTAR          = .31956E-3
MEAN_MOTION_DOT = .2756E-3
MEAN_MOTION_DDOT = 0

CCSDS_OMM_VERS = 2.0
CREATION_DATE  = 
ORIGINATOR     = 

OBJECT_NAME    = ISS (NAUKA)
OBJECT_ID      = 2021-066A
CENTER_NAME    = EARTH
REF_FRAME      = TEME
TIME_SYSTEM    = UTC
MEAN_ELEMENT_THEORY = SGP/SGP4

EPOCH          = 2026-01-26T04:12:04.882464
MEAN_MOTION    = 15.48192940
ECCENTRICITY   = .00110604
INCLINATION    = 51.6321
RA_OF_ASC_NODE = 282.5143
ARG_OF_PERICENTER = 31.3623
MEAN_ANOMALY   = 328.8023

EPHEMERIS_TYPE = 0
CLASSIFICATION_TYPE = U
NORAD_CAT_ID   = 49044
ELEMENT_SET_NO = 999
REV_AT_EPOCH   = 23044
BSTAR          = .24609565E-3
MEAN_MOTION_DOT = .12778E-3
MEAN_MOTION_DDOT = 0

CCSDS_OMM_VERS = 2.0
CREATION_DATE  = 
ORIGINATOR     = 

OBJECT_NAME    = FREGAT DEB
OBJECT_ID      = 2011-037PF
CENTER_NAME    = EARTH
REF_FRAME      = TEME
TIME_SYSTEM    = UTC
MEAN_ELEMENT_THEORY = SGP/SGP4

EPOCH          = 2026-01-26T07:38:08.674944
MEAN_MOTION    = 12.36905056
ECCENTRICITY   = .0909661
INCLINATION    = 51.6485
RA_OF_ASC_NODE = 67.3865
ARG_OF_PERICENTER = 322.4822
MEAN_ANOMALY   = 31.5760

EPHEMERIS_TYPE = 0
CLASSIFICATION_TYPE = U
NORAD_CAT_ID   = 49271
ELEMENT_SET_NO = 999
REV_AT_EPOCH   = 20744
BSTAR          = .97036E-1
MEAN_MOTION_DOT = .53157E-3
MEAN_MOTION_DDOT = 0

CCSDS_OMM_VERS = 2.0
CREATION_DATE  = 
ORIGINATOR     = 

OBJECT_NAME    = CSS (WENTIAN)
OBJECT_ID      = 2022-085A
CENTER_NAME    = EARTH
REF_FRAME      = TEME
TIME_SYSTEM    = UTC
MEAN_ELEMENT_THEORY = SGP/SGP4

EPOCH          = 2026-01-26T06:27:24.659424
MEAN_MOTION    = 15.61108540
ECCENTRICITY   = .00097543
INCLINATION    = 41.4667
RA_OF_ASC_NODE = 105.9915
ARG_OF_PERICENTER = 5.2238
MEAN_ANOMALY   = 354.8701

EPHEMERIS_TYPE = 0
CLASSIFICATION_TYPE = U
NORAD_CAT_ID   = 53239
ELEMENT_SET_NO = 999
REV_AT_EPOCH   = 17384
BSTAR          = .33017883E-3
MEAN_MOTION_DOT = .28479E-3
MEAN_MOTION_DDOT = 0

CCSDS_OMM_VERS = 2.0
CREATION_DATE  = 
ORIGINATOR     = 

OBJECT_NAME    = CSS (MENGTIAN)
OBJECT_ID      = 2022-143A
CENTER_NAME    = EARTH
REF_FRAME      = TEME
TIME_SYSTEM    = UTC
MEAN_ELEMENT_THEORY = SGP/SGP4

EPOCH          = 2026-01-26T06:27:24.659424
MEAN_MOTION    = 15.61108540
ECCENTRICITY   = .00097543
INCLINATION    = 41.4667
RA_OF_ASC_NODE = 105.9915
ARG_OF_PERICENTER = 5.2238
MEAN_ANOMALY   = 354.8701

EPHEMERIS_TYPE = 0
CLASSIFICATION_TYPE = U
NORAD_CAT_ID   = 54216
ELEMENT_SET_NO = 999
REV_AT_EPOCH   = 15864
BSTAR          = .33017883E-3
MEAN_MOTION_DOT = .28479E-3
MEAN_MOTION_DDOT = 0

CCSDS_OMM_VERS = 2.0
CREATION_DATE  = 
ORIGINATOR     = 

OBJECT_NAME    = PROGRESS-MS 31
OBJECT_ID      = 2025-146A
CENTER_NAME    = EARTH
REF_FRAME      = TEME
TIME_SYSTEM    = UTC
MEAN_ELEMENT_THEORY = SGP/SGP4

EPOCH          = 2026-01-26T04:12:04.882464
MEAN_MOTION    = 15.48192940
ECCENTRICITY   = .00110604
INCLINATION    = 51.6321
RA_OF_ASC_NODE = 282.5143
ARG_OF_PERICENTER = 31.3623
MEAN_ANOMALY   = 328.8023

EPHEMERIS_TYPE = 0
CLASSIFICATION_TYPE = U
NORAD_CAT_ID   = 64751
ELEMENT_SET_NO = 999
REV_AT_EPOCH   = 675
BSTAR          = .24609565E-3
MEAN_MOTION_DOT = .12778E-3
MEAN_MOTION_DDOT = 0

CCSDS_OMM_VERS = 2.0
CREATION_DATE  = 
ORIGINATOR     = 

OBJECT_NAME    = TIANZHOU-9
OBJECT_ID      = 2025-149A
CENTER_NAME    = EARTH
REF_FRAME      = TEME
TIME_SYSTEM    = UTC
MEAN_ELEMENT_THEORY = SGP/SGP4

EPOCH          = 2026-01-26T06:27:24.659424
MEAN_MOTION    = 15.61108540
ECCENTRICITY   = .00097543
INCLINATION    = 41.4667
RA_OF_ASC_NODE = 105.9915
ARG_OF_PERICENTER = 5.2238
MEAN_ANOMALY   = 354.8701

EPHEMERIS_TYPE = 0
CLASSIFICATION_TYPE = U
NORAD_CAT_ID   = 64786
ELEMENT_SET_NO = 999
REV_AT_EPOCH   = 25530
BSTAR          = .33017883E-3
MEAN_MOTION_DOT = .28479E-3
MEAN_MOTION_DDOT = 0

CCSDS_OMM_VERS = 2.0
CREATION_DATE  = 
ORIGINATOR     = 

OBJECT_NAME    = DRAGON CRS-33
OBJECT_ID      = 2025-186A
CENTER_NAME    = EARTH
REF_FRAME      = TEME
TIME_SYSTEM    = UTC
MEAN_ELEMENT_THEORY = SGP/SGP4

EPOCH          = 2026-01-26T04:12:04.882464
MEAN_MOTION    = 15.48192940
ECCENTRICITY   = .00110604
INCLINATION    = 51.6321
RA_OF_ASC_NODE = 282.5143
ARG_OF_PERICENTER = 31.3623
MEAN_ANOMALY   = 328.8023

EPHEMERIS_TYPE = 0
CLASSIFICATION_TYPE = U
NORAD_CAT_ID   = 65304
ELEMENT_SET_NO = 999
REV_AT_EPOCH   = 11
BSTAR          = .24609565E-3
MEAN_MOTION_DOT = .12778E-3
MEAN_MOTION_DDOT = 0

CCSDS_OMM_VERS = 2.0
CREATION_DATE  = 
ORIGINATOR     = 

OBJECT_NAME    = PROGRESS-MS 32
OBJECT_ID      = 2025-204A
CENTER_NAME    = EARTH
REF_FRAME      = TEME
TIME_SYSTEM    = UTC
MEAN_ELEMENT_THEORY = SGP/SGP4

EPOCH          = 2026-01-26T04:12:04.882464
MEAN_MOTION    = 15.48192940
ECCENTRICITY   = .00110604
INCLINATION    = 51.6321
RA_OF_ASC_NODE = 282.5143
ARG_OF_PERICENTER = 31.3623
MEAN_ANOMALY   = 328.8023

EPHEMERIS_TYPE = 0
CLASSIFICATION_TYPE = U
NORAD_CAT_ID   = 65586
ELEMENT_SET_NO = 999
REV_AT_EPOCH   = 27
BSTAR          = .24609565E-3
MEAN_MOTION_DOT = .12778E-3
MEAN_MOTION_DDOT = 0

CCSDS_OMM_VERS = 2.0
CREATION_DATE  = 
ORIGINATOR     = 

OBJECT_NAME    = CYGNUS NG-23
OBJECT_ID      = 2025-208A
CENTER_NAME    = EARTH
REF_FRAME      = TEME
TIME_SYSTEM    = UTC
MEAN_ELEMENT_THEORY = SGP/SGP4

EPOCH          = 2026-01-26T04:12:04.882464
MEAN_MOTION    = 15.48192940
ECCENTRICITY   = .00110604
INCLINATION    = 51.6321
RA_OF_ASC_NODE = 282.5143
ARG_OF_PERICENTER = 31.3623
MEAN_ANOMALY   = 328.8023

EPHEMERIS_TYPE = 0
CLASSIFICATION_TYPE = U
NORAD_CAT_ID   = 65616
ELEMENT_SET_NO = 999
REV_AT_EPOCH   = 22
BSTAR          = .24609565E-3
MEAN_MOTION_DOT = .12778E-3
MEAN_MOTION_DDOT = 0

CCSDS_OMM_VERS = 2.0
CREATION_DATE  = 
ORIGINATOR     = 

OBJECT_NAME    = DRAGONFLY
OBJECT_ID      = 1998-067XH
CENTER_NAME    = EARTH
REF_FRAME      = TEME
TIME_SYSTEM    = UTC
MEAN_ELEMENT_THEORY = SGP/SGP4

EPOCH          = 2026-01-25T16:02:32.123040
MEAN_MOTION    = 16.05047291
ECCENTRICITY   = .0007496
INCLINATION    = 51.6136
RA_OF_ASC_NODE = 266.9855
ARG_OF_PERICENTER = 201.2231
MEAN_ANOMALY   = 158.8471

EPHEMERIS_TYPE = 0
CLASSIFICATION_TYPE = U
NORAD_CAT_ID   = 65729
ELEMENT_SET_NO = 999
REV_AT_EPOCH   = 2012
BSTAR          = .17972E-2
MEAN_MOTION_DOT = .1261085E-1
MEAN_MOTION_DDOT = .92481E-3

